STARLINK-31809          
1 59743U 24090P   26068.31460966 -.00000889  00000+0 -22778-4 0  9996
2 59743  43.0002 178.6175 0001079 298.3904  61.6839 15.27574983103464
TEVEL2-8                
1 63239U 25052AF  26068.66815442  .00019130  00000+0  69304-3 0  9993
2 63239  97.4055 324.2923 0008031 124.9191 235.2804 15.28392908 54807
